OBJECT_NAME,OBJECT_ID,EPOCH,MEAN_MOTION,ECCENTRICITY,INCLINATION,RA_OF_ASC_NODE,ARG_OF_PERICENTER,MEAN_ANOMALY,EPHEMERIS_TYPE,CLASSIFICATION_TYPE,NORAD_CAT_ID,ELEMENT_SET_NO,REV_AT_EPOCH,BSTAR,MEAN_MOTION_DOT,MEAN_MOTION_DDOT
STARLINK-35930,2025-270M,2026-07-02T19:36:57.896928,15.27574710,.0001349,43.0013,125.9575,252.2531,107.8173,0,U,66599,999,3531,-.14173E-5,-.301E-5,0
STARLINK-35980,2025-270N,2026-07-02T20:13:59.418048,15.27603078,.0001033,43.0013,126.1503,234.1990,125.8766,0,U,66600,999,3521,.68999E-3,.18787E-3,0
STARLINK-35978,2025-270P,2026-07-02T19:35:07.336032,15.27583930,.0000109,43.0014,125.9533,73.3903,286.6960,0,U,66601,999,3515,.8757E-3,.23916E-3,0
STARLINK-36050,2025-270Q,2026-07-02T20:12:07.550784,15.27593572,.0001842,43.0042,126.1497,281.9916,78.0729,0,U,66602,999,3521,.81772E-3,.22317E-3,0
STARLINK-36048,2025-270R,2026-07-02T20:48:55.398240,15.27575276,.0001005,43.0000,125.4714,249.0527,111.0217,0,U,66603,999,3522,.76043E-3,.20719E-3,0
STARLINK-35977,2025-270S,2026-07-02T20:32:16.050048,15.27580372,.0000655,43.0003,125.3840,250.9219,109.1562,0,U,66604,999,3532,.66736E-3,.18147E-3,0
STARLINK-36052,2025-270T,2026-07-02T13:40:40.315584,15.27606984,.0001595,43.0037,127.5391,277.8004,82.2666,0,U,66605,999,3527,.82983E-3,.22662E-3,0
STARLINK-36063,2025-270U,2026-07-02T20:56:19.342176,15.27579294,.000109,42.9997,125.5053,273.1383,86.9343,0,U,66606,999,3532,.23676E-3,.6259E-4,0
STARLINK-35993,2025-270V,2026-07-02T19:53:37.622688,15.27557997,.0000783,43.0007,126.0422,244.2214,115.8557,0,U,66607,999,3521,.96115E-3,.26263E-3,0
STARLINK-36036,2025-270W,2026-07-02T20:50:46.386816,15.27571939,.0001421,43.0018,125.4774,263.5452,96.5238,0,U,66608,999,3516,.89566E-3,.2446E-3,0
STARLINK-36034,2025-270X,2026-07-02T03:07:29.993664,15.27605648,.00011452,43.0012,130.2572,263.7416,96.3306,0,U,66609,999,3504,.81496984E-3,.22249E-3,0
STARLINK-35680,2025-270Y,2026-07-02T19:42:31.058784,15.27577531,.0000898,43.0003,125.9855,266.1776,93.8973,0,U,66610,999,3542,.59044E-3,.1602E-3,0
STARLINK-35583,2025-270Z,2026-07-02T19:31:23.617056,15.27623467,.0000832,43.0014,125.9266,266.9849,93.0908,0,U,66611,999,3542,.11115E-2,.30491E-3,0
STARLINK-36039,2025-270AA,2026-07-02T20:00:59.652000,15.27625479,.0001585,43.0028,126.0846,266.9640,93.1030,0,U,66612,999,3531,.76985E-3,.21012E-3,0
STARLINK-36037,2025-270AB,2026-07-02T19:46:13.150848,15.27560756,.0001321,43.0001,126.0067,244.8995,115.1720,0,U,66613,999,3531,.54483E-3,.14752E-3,0
STARLINK-36040,2025-270AC,2026-07-02T03:03:48.365568,15.27604190,.00015617,43.0010,130.2390,262.4944,97.5730,0,U,66614,999,3504,.72093674E-3,.19644E-3,0
STARLINK-35988,2025-270AD,2026-07-02T21:03:43.132320,15.27567053,.0001379,42.9999,125.5494,268.4201,91.6493,0,U,66615,999,3516,.58533E-5,-.101E-5,0
STARLINK-35391,2025-270AE,2026-07-02T20:08:25.335168,15.27596620,.0002966,43.0041,126.1205,278.4162,81.6354,0,U,66616,999,3542,.11842E-2,.32488E-3,0
STARLINK-35940,2025-271A,2026-07-02T19:57:58.613760,15.30199236,.0001407,53.1607,325.2446,78.3634,281.7524,0,U,66617,999,3519,.8426E-3,.24679E-3,0
STARLINK-35970,2025-271B,2026-07-02T15:53:38.262624,15.30194982,.0002565,53.1613,325.5946,96.7477,263.3815,0,U,66618,999,3517,.56713E-3,.16473E-3,0
STARLINK-35951,2025-271C,2026-07-02T18:30:00.404064,15.30180299,.0001817,53.1604,325.5687,75.0680,285.0522,0,U,66619,999,3518,.11998E-2,.35324E-3,0
STARLINK-35936,2025-271D,2026-07-02T18:45:11.968992,15.30180429,.0001359,53.1614,325.6366,100.1573,259.9581,0,U,66620,999,3518,.754E-3,.22025E-3,0
STARLINK-35847,2025-271E,2026-07-02T02:52:29.453376,15.30190309,.00011776,53.1619,328.6061,99.5988,260.5146,0,U,66621,999,3508,.6570088E-3,.19144E-3,0
STARLINK-35950,2025-271F,2026-07-02T20:01:01.247808,15.30178477,.0001687,53.1592,325.2544,74.7544,285.3643,0,U,66622,999,3519,.75704E-3,.22114E-3,0
STARLINK-35920,2025-271G,2026-07-02T18:18:47.742048,15.34383146,.0001882,53.1556,322.6900,92.9180,267.2038,0,U,66623,999,3522,.11065E-2,.37176E-3,0
STARLINK-35927,2025-271H,2026-07-02T19:03:15.862176,15.30199357,.0000971,53.1607,325.0016,104.4138,255.6970,0,U,66624,999,3519,.38114E-3,.10946E-3,0
STARLINK-35929,2025-271J,2026-07-02T16:23:47.001696,15.34392007,.0002557,53.1652,322.9003,96.6845,263.4449,0,U,66625,999,3520,.77522E-3,.259E-3,0
STARLINK-35902,2025-271K,2026-07-02T03:01:36.589152,15.30223634,.00010848,53.1629,328.6587,79.8876,280.2247,0,U,66626,999,3508,.77361077E-3,.22639E-3,0
STARLINK-35904,2025-271L,2026-07-02T16:43:47.679168,15.30204698,.0001698,53.1591,325.8190,91.8484,268.2711,0,U,66627,999,3513,.75493E-3,.22069E-3,0
STARLINK-35862,2025-271M,2026-07-01T19:06:58.894272,15.34436212,.00014168,53.1602,327.3171,99.3329,260.7834,0,U,66628,999,3507,.11195694E-2,.37684E-3,0
STARLINK-35949,2025-271P,2026-07-02T16:32:52.328256,15.34386038,.0001432,53.1591,322.9363,104.5374,255.5787,0,U,66630,999,3521,.10316E-2,.34625E-3,0
STARLINK-35965,2025-271Q,2026-07-02T16:20:45.338784,15.34387065,.0002654,53.1663,322.8854,100.6029,259.5273,0,U,66631,999,3520,.79222E-3,.26475E-3,0
STARLINK-35973,2025-271R,2026-07-01T18:57:53.610048,15.34448685,.00008223,53.1603,327.2816,63.6557,296.4530,0,U,66632,999,3502,.9345031E-3,.31378E-3,0
STARLINK-35948,2025-271S,2026-07-01T20:34:42.731328,15.34435104,.00010661,53.1600,326.9904,94.9818,265.1307,0,U,66633,999,3508,.91594822E-3,.30732E-3,0
STARLINK-35967,2025-271T,2026-07-02T18:09:42.544224,15.34421220,.000141,53.1585,322.6490,88.7076,271.4088,0,U,66634,999,3517,.6667E-3,.22231E-3,0
STARLINK-35955,2025-271U,2026-07-01T20:25:38.507232,15.30225460,.00015362,53.1611,329.7825,77.7767,282.3406,0,U,66635,999,3504,.64425442E-3,.18785E-3,0
STARLINK-35968,2025-271V,2026-07-02T18:31:31.048896,15.30176692,.0000724,53.1613,325.5760,82.0536,278.0546,0,U,66636,999,3518,.50601E-3,.14646E-3,0
STARLINK-35953,2025-271W,2026-07-01T19:03:57.175200,15.34430523,.00012382,53.1603,327.3053,93.0552,267.0592,0,U,66637,999,3507,.13862386E-2,.46798E-3,0
STARLINK-35972,2025-271X,2026-07-01T03:29:17.573856,15.30205154,.00013991,53.1619,333.1973,101.0660,259.0498,0,U,66638,999,3493,.56161925E-3,.16314E-3,0
STARLINK-35908,2025-271Y,2026-07-02T18:16:19.668000,15.30200168,.000101,53.1593,325.5063,89.0082,271.1034,0,U,66639,999,3518,.1074E-2,.31584E-3,0
STARLINK-35921,2025-271Z,2026-07-02T00:11:33.004032,15.30143452,.0001463,53.1607,328.6278,64.0099,296.1053,0,U,66640,999,3507,.15117E-2,.44604E-3,0
STARLINK-35923,2025-271AA,2026-06-30T22:59:17.718144,15.30222794,.00010149,53.1611,334.1562,78.5112,281.6003,0,U,66641,999,3490,.66126976E-3,.1929E-3,0
STARLINK-35926,2025-271AB,2026-07-02T18:36:04.676832,15.30193939,.0000802,53.1610,325.5905,93.6402,266.4690,0,U,66642,999,3514,.10314E-2,.30307E-3,0
STARLINK-35918,2025-271AC,2026-07-02T02:34:44.816160,15.34423734,.00011585,53.1598,325.7020,91.3262,268.7873,0,U,66643,999,3512,.10842694E-2,.36463E-3,0
STARLINK-35938,2025-271AD,2026-07-02T18:48:14.075136,15.30184844,.0001322,53.1619,325.6438,88.9194,271.1959,0,U,66644,999,3518,.93612E-3,.27455E-3,0
COSMOS 2597 (RODNIK-S 22),2025-273A,2026-07-02T16:41:19.813344,12.42899576,.0011622,82.4994,160.8794,177.1142,183.0006,0,U,66647,999,2722,-.69359E-4,0,0
COSMOS 2598 (RODNIK-S 23),2025-273B,2026-07-02T15:57:51.444000,12.42880595,.0011561,82.5035,160.9322,145.6406,214.5423,0,U,66648,999,2722,.632E-4,.19E-6,0
COSMOS 2599 (RODNIK-S 24),2025-273C,2026-07-02T15:24:33.852672,12.42896638,.0016028,82.5033,161.0295,165.1734,194.9819,0,U,66649,999,2721,-.83199E-4,-.2E-7,0
BEE-1000,2025-274A,2026-07-02T08:48:56.395296,14.93002391,.001038,97.7481,112.2075,310.2743,49.7568,0,U,66650,999,3247,.31191E-3,.3189E-4,0
2025-274B,2025-274B,2026-07-02T12:46:14.843136,14.93303195,.0010661,97.7470,112.4364,306.9624,53.0619,0,U,66651,999,3250,.32808E-3,.3383E-4,0
2025-274C,2025-274C,2026-07-02T12:55:20.538624,14.93124605,.0010392,97.7475,112.4407,313.8684,46.1676,0,U,66652,999,3250,.29518E-3,.3024E-4,0
2025-274D,2025-274D,2026-07-02T13:26:42.722016,14.92816808,.0011337,97.7481,112.4156,309.6084,50.4134,0,U,66653,999,3250,.20593E-3,.2076E-4,0
JACK E,2025-274E,2026-07-02T19:00:55.426752,14.93140731,.0011856,97.7481,112.7321,309.6472,50.3701,0,U,66654,999,3254,.21836E-3,.2223E-4,0
CAS500-3,2025-274F,2026-07-02T17:53:28.704768,14.88359938,.0006878,97.7442,111.4426,70.4146,289.7813,0,U,66655,999,3246,.17261E-3,.1545E-4,0
2025-274G,2025-274G,2026-07-02T18:09:00.570240,14.93445775,.0012283,97.7481,112.7722,311.4993,48.5171,0,U,66656,999,3254,.31356E-3,.3244E-4,0
SPIRONE,2025-274H,2026-07-02T07:53:28.389120,14.93607902,.0011249,97.7476,112.4040,330.8317,29.2274,0,U,66657,999,3248,.25676E-3,.2656E-4,0
COSMIC,2025-274J,2026-07-02T12:39:26.831232,14.94396957,.0011693,97.7471,112.7541,332.1555,27.9039,0,U,66658,999,3252,.37897E-3,.4029E-4,0
JACK K,2025-274K,2026-07-02T08:23:05.369280,14.93897051,.0012452,97.7483,112.5396,334.8785,25.1828,0,U,66659,999,3249,.30153E-3,.3153E-4,0
K-HERO,2025-274L,2026-07-02T17:32:41.456832,14.94021234,.0013153,97.7482,112.9728,332.9102,27.1430,0,U,66660,999,3255,.23318E-3,.2433E-4,0
SNUGLITE-III,2025-274M,2026-07-02T12:25:12.475200,14.94056605,.0013873,97.7481,112.7830,334.8328,25.2214,0,U,66661,999,3252,.17108E-3,.1772E-4,0
E3T-1 (E3TESTER-1),2025-274N,2026-07-02T18:25:22.564128,14.94254121,.0014123,97.7485,113.0752,333.7613,26.2890,0,U,66662,999,3256,.23951E-3,.2517E-4,0
SOYUZ-MS 28,2025-275A,2026-07-01T12:11:46.289760,15.49503254,.00042241,51.6311,229.1989,255.0896,104.9625,0,U,66664,999,64415,.11826728E-3,.6185E-4,0
FORMOSAT-8A,2025-276A,2026-07-02T16:11:20.656032,15.00719476,.0003968,97.6547,257.6859,177.5781,182.5462,0,U,66666,999,3238,.15462E-3,.19E-4,0
PELICAN-5,2025-276B,2026-07-01T04:41:17.867616,15.31178180,.0003137,97.4135,257.1551,352.7528,7.3667,0,U,66667,999,3266,.13257E-3,.3915E-4,0
SARI-1,2025-276C,2026-07-02T00:23:04.394112,15.28662671,.00051646,97.4046,257.1245,310.1927,49.8860,0,U,66668,999,3275,.13419339E-2,.37488E-3,0
